$$SOE
2460147.500000000, A.D. 2023-Jul-22 00:00:00.0000, 2.571362698767285E+07, -4.391749343456381E+08, -5.518897382807305E+07,
2460154.500000000, A.D. 2023-Jul-29 00:00:00.0000, 3.553637506213313E+07, -4.374763551378757E+08, -5.399326693455815E+07,
2460161.500000000, A.D. 2023-Aug-05 00:00:00.0000, 4.533912022224937E+07, -4.355322122924160E+08, -5.276725030798849E+07,
2460168.500000000, A.D. 2023-Aug-12 00:00:00.0000, 5.511615411534857E+07, -4.333416445286018E+08, -5.151137532541597E+07,
2460175.500000000, A.D. 2023-Aug-19 00:00:00.0000, 6.486168796419662E+07, -4.309038908346643E+08, -5.022611450704589E+07,
2460182.500000000, A.D. 2023-Aug-26 00:00:00.0000, 7.456985221752249E+07, -4.282182944531879E+08, -4.891196208024159E+07,
2460189.500000000, A.D. 2023-Sep-02 00:00:00.0000, 8.423469630173109E+07, -4.252843071184435E+08, -4.756943456025952E+07,
2460196.500000000, A.D. 2023-Sep-09 00:00:00.0000, 9.385018852200241E+07, -4.221014935888004E+08, -4.619907135335493E+07,
2460203.500000000, A.D. 2023-Sep-16 00:00:00.0000, 1.034102162941381E+08, -4.186695365340471E+08, -4.480143540124181E+07,
2460210.500000000, A.D. 2023-Sep-23 00:00:00.0000, 1.129085871372368E+08, -4.149882414927644E+08, -4.337711388033491E+07,
2460217.500000000, A.D. 2023-Sep-30 00:00:00.0000, 1.223390301016421E+08, -4.110575407104220E+08, -4.192671882576180E+07,
2460224.500000000, A.D. 2023-Oct-07 00:00:00.0000, 1.316951952928002E+08, -4.068774964006795E+08, -4.045088750675696E+07,
2460231.500000000, A.D. 2023-Oct-14 00:00:00.0000, 1.409706525466779E+08, -4.024483067406892E+08, -3.895028291754800E+07,
2460238.500000000, A.D. 2023-Oct-21 00:00:00.0000, 1.501588925030555E+08, -3.977703129957063E+08, -3.742559454692763E+07,
2460245.500000000, A.D. 2023-Oct-28 00:00:00.0000, 1.592533286706735E+08, -3.928440055117160E+08, -3.587753910907203E+07,
2460252.500000000, A.D. 2023-Nov-04 00:00:00.0000, 1.682472992526646E+08, -3.876700293441496E+08, -3.430686118148485E+07,
2460259.500000000, A.D. 2023-Nov-11 00:00:00.0000, 1.771340689289278E+08, -3.822491901187238E+08, -3.271433381266835E+07,
2460266.500000000, A.D. 2023-Nov-18 00:00:00.0000, 1.859068308347257E+08, -3.765824601836028E+08, -3.110075912196943E+07,
2460273.500000000, A.D. 2023-Nov-25 00:00:00.0000, 1.945587088285897E+08, -3.706709850237345E+08, -2.946696889325622E+07,
2460280.500000000, A.D. 2023-Dec-02 00:00:00.0000, 2.030827600985028E+08, -3.645160899399709E+08, -2.781382516254205E+07,
2460287.500000000, A.D. 2023-Dec-09 00:00:00.0000, 2.114719782061251E+08, -3.581192870412536E+08, -2.614222080798864E+07,
2460294.500000000, A.D. 2023-Dec-16 00:00:00.0000, 2.197192968801153E+08, -3.514822825256336E+08, -2.445308016398911E+07,
2460301.500000000, A.D. 2023-Dec-23 00:00:00.0000, 2.278175949312649E+08, -3.446069835507768E+08, -2.274735963123672E+07,
2460308.500000000, A.D. 2023-Dec-30 00:00:00.0000, 2.357597009727721E+08, -3.374955036314470E+08, -2.102604806987555E+07,
2460315.500000000, A.D. 2024-Jan-06 00:00:00.0000, 2.435383961955658E+08, -3.301501689074625E+08, -1.929016700153366E+07,
2460322.500000000, A.D. 2024-Jan-13 00:00:00.0000, 2.511464183944061E+08, -3.225735270674402E+08, -1.754077105419548E+07,
2460329.500000000, A.D. 2024-Jan-20 00:00:00.0000, 2.585764684931149E+08, -3.147683558209209E+08, -1.577894850514530E+07,
2460336.500000000, A.D. 2024-Jan-27 00:00:00.0000, 2.658212175649949E+08, -3.067376702428045E+08, -1.400582167732310E+07,
2460343.500000000, A.D. 2024-Feb-03 00:00:00.0000, 2.728733139439406E+08, -2.984847299119287E+08, -1.222254722165571E+07,
2460350.500000000, A.D. 2024-Feb-10 00:00:00.0000, 2.797253907268741E+08, -2.900130461049092E+08, -1.043031632856545E+07,
2460357.500000000, A.D. 2024-Feb-17 00:00:00.0000, 2.863700738288604E+08, -2.813263890043907E+08, -8.630354874329105E+06,
2460364.500000000, A.D. 2024-Feb-24 00:00:00.0000, 2.927999906483907E+08, -2.724287948711421E+08, -6.823923497612953E+06,
2460371.500000000, A.D. 2024-Mar-02 00:00:00.0000, 2.990077793918643E+08, -2.633245731734960E+08, -5.012317604449600E+06,
2460378.500000000, A.D. 2024-Mar-09 00:00:00.0000, 3.049860992136983E+08, -2.540183136940016E+08, -3.196867312189043E+06,
2460385.500000000, A.D. 2024-Mar-16 00:00:00.0000, 3.107276415837973E+08, -2.445148933696073E+08, -1.378937344855085E+06,
2460392.500000000, A.D. 2024-Mar-23 00:00:00.0000, 3.162251427935208E+08, -2.348194817086044E+08, 4.400732284525782E+05,
2460399.500000000, A.D. 2024-Mar-30 00:00:00.0000, 3.214713953681015E+08, -2.249375447613465E+08, 2.258731623887211E+06,
2460406.500000000, A.D. 2024-Apr-06 00:00:00.0000, 3.264592586430327E+08, -2.148748509552475E+08, 4.075572051080093E+06,
2460413.500000000, A.D. 2024-Apr-13 00:00:00.0000, 3.311816720545291E+08, -2.046374778923756E+08, 5.889096249245435E+06,
2460420.500000000, A.D. 2024-Apr-20 00:00:00.0000, 3.356316701925562E+08, -1.942318173656599E+08, 7.697774164723732E+06,
2460427.500000000, A.D. 2024-Apr-27 00:00:00.0000, 3.398023980986434E+08, -1.836645790888098E+08, 9.500044871144079E+06,
2460434.500000000, A.D. 2024-May-04 00:00:00.0000, 3.436871268900859E+08, -1.729427937772959E+08, 1.129431767488090E+07,
2460441.500000000, A.D. 2024-May-11 00:00:00.0000, 3.472792699347457E+08, -1.620738156147285E+08, 1.307897338383551E+07,
2460448.500000000, A.D. 2024-May-18 00:00:00.0000, 3.505723996360658E+08, -1.510653240128460E+08, 1.485236574162252E+07,
2460455.500000000, A.D. 2024-May-25 00:00:00.0000, 3.535602648228980E+08, -1.399253245994278E+08, 1.661282303154506E+07,
2460462.500000000, A.D. 2024-Jun-01 00:00:00.0000, 3.562368087659851E+08, -1.286621494171470E+08, 1.835864984660368E+07,
2460469.500000000, A.D. 2024-Jun-08 00:00:00.0000, 3.585961880204892E+08, -1.172844562805314E+08, 2.008812900637666E+07,
2460476.500000000, A.D. 2024-Jun-15 00:00:00.0000, 3.606327924394817E+08, -1.058012266682653E+08, 2.179952363304429E+07,
2460483.500000000, A.D. 2024-Jun-22 00:00:00.0000, 3.623412652949451E+08, -9.422176089967974E+07, 2.349107957911083E+07,
2460490.500000000, A.D. 2024-Jun-29 00:00:00.0000, 3.637165213193730E+08, -8.255567234694770E+07, 2.516102825623068E+07,
2460497.500000000, A.D. 2024-Jul-06 00:00:00.0000, 3.647537652330893E+08, -7.081288308772606E+07, 2.680758942176078E+07,
2460504.500000000, A.D. 2024-Jul-13 00:00:00.0000, 3.654485126163509E+08, -5.900361810810154E+07, 2.842897397440000E+07,
2460511.500000000, A.D. 2024-Jul-20 00:00:00.0000, 3.657966110447543E+08, -4.713839684634962E+07, 3.002338703329159E+07,
2460518.500000000, A.D. 2024-Jul-27 00:00:00.0000, 3.657942607282951E+08, -3.522802298366428E+07, 3.158903127914638E+07,
2460525.500000000, A.D. 2024-Aug-03 00:00:00.0000, 3.654380348144057E+08, -2.328357281099585E+07, 3.312411049654881E+07,
2460532.500000000, A.D. 2024-Aug-10 00:00:00.0000, 3.647248993999380E+08, -1.131638213887543E+07, 3.462683329470541E+07,
2460539.500000000, A.D. 2024-Aug-17 00:00:00.0000, 3.636522331714237E+08, 6.619682996387873E+05, 3.609541699491972E+07,
2460546.500000000, A.D. 2024-Aug-24 00:00:00.0000, 3.622178465673802E+08, 1.263966894793680E+07, 3.752809166931779E+07,
2460553.500000000, A.D. 2024-Aug-31 00:00:00.0000, 3.604200004390508E+08, 2.460469896983133E+07, 3.892310430204926E+07,
2460560.500000000, A.D. 2024-Sep-07 00:00:00.0000, 3.582574244297383E+08, 3.654484535497425E+07, 4.027872303392777E+07,
2460567.500000000, A.D. 2024-Sep-14 00:00:00.0000, 3.557293350057814E+08, 4.844772455901033E+07, 4.159324154530097E+07,
2460574.500000000, A.D. 2024-Sep-21 00:00:00.0000, 3.528354509600320E+08, 6.030080705726367E+07, 4.286498377758833E+07,
2460581.500000000, A.D. 2024-Sep-28 00:00:00.0000, 3.495760057562146E+08, 7.209144153050071E+07, 4.409230875420838E+07,
2460588.500000000, A.D. 2024-Oct-05 00:00:00.0000, 3.459517602337816E+08, 8.380687861029713E+07, 4.527361513955450E+07,
2460595.500000000, A.D. 2024-Oct-12 00:00:00.0000, 3.419640151605448E+08, 9.543429707783291E+07, 4.640734578483480E+07,
2460602.500000000, A.D. 2024-Oct-19 00:00:00.0000, 3.376146217382747E+08, 1.069608321454796E+08, 4.749199237071721E+07,
2460609.500000000, A.D. 2024-Oct-26 00:00:00.0000, 3.329059898945261E+08, 1.183736049045138E+08, 4.852610005488865E+07,
2460616.500000000, A.D. 2024-Nov-02 00:00:00.0000, 3.278410944944435E+08, 1.296597526602453E+08, 4.950827205891546E+07,
2460623.500000000, A.D. 2024-Nov-09 00:00:00.0000, 3.224234794585363E+08, 1.408064600300387E+08, 5.043717415732549E+07,
2460630.500000000, A.D. 2024-Nov-16 00:00:00.0000, 3.166572597162519E+08, 1.518009906446832E+08, 5.131153903680918E+07,
2460637.500000000, A.D. 2024-Nov-23 00:00:00.0000, 3.105471209620232E+08, 1.626307192299964E+08, 5.213017048764376E+07,
2460644.500000000, A.D. 2024-Nov-30 00:00:00.0000, 3.040983173594967E+08, 1.732831638409171E+08, 5.289194737564459E+07,
2460651.500000000, A.D. 2024-Dec-07 00:00:00.0000, 2.973166675693381E+08, 1.837460184715628E+08, 5.359582736133862E+07,
2460658.500000000, A.D. 2024-Dec-14 00:00:00.0000, 2.902085483819968E+08, 1.940071870569960E+08, 5.424085049891218E+07,
2460665.500000000, A.D. 2024-Dec-21 00:00:00.0000, 2.827808836238702E+08, 2.040548174173862E+08, 5.482614279714752E+07,
2460672.500000000, A.D. 2024-Dec-28 00:00:00.0000, 2.750411303262788E+08, 2.138773319680560E+08, 5.535091929332823E+07,
2460679.500000000, A.D. 2025-Jan-04 00:00:00.0000, 2.669972647883006E+08, 2.234634573553582E+08, 5.581448656896468E+07,
2460686.500000000, A.D. 2025-Jan-11 00:00:00.0000, 2.586577667598569E+08, 2.328022544692900E+08, 5.621624498524259E+07,
2460693.500000000, A.D. 2025-Jan-18 00:00:00.0000, 2.500316009027208E+08, 2.418831477177518E+08, 5.655569062924233E+07,
2460700.500000000, A.D. 2025-Jan-25 00:00:00.0000, 2.411281958757130E+08, 2.506959529001787E+08, 5.683241689744784E+07,
2460707.500000000, A.D. 2025-Feb-01 00:00:00.0000, 2.319574213594116E+08, 2.592309034697563E+08, 5.704611568761422E+07,
2460714.500000000, A.D. 2025-Feb-08 00:00:00.0000, 2.225295632223289E+08, 2.674786750324751E+08, 5.719657818814820E+07,
$$EOE